{"type": "FeatureCollection", "features": [ {"type": "Feature", "properties": {"norad_id": 66917, "name": "HULIANWANG DIGUI 14C", "group": "last-30-days", "lat": 14.028324876470888, "lon": -60.886282550691746, "alt_km": 875.1378220028146, "timestamp": "2025-12-09T07:41:31.974147+00:00", "meta": {"OBJECT_NAME": "HULIANWANG DIGUI 14C", "OBJECT_ID": "2025-285C", "EPOCH": "2025-12-08T22:23:41.400384", "MEAN_MOTION": 14.05578265, "ECCENTRICITY": 0.00075291, "INCLINATION": 50.0009, "RA_OF_ASC_NODE": 132.806, "ARG_OF_PERICENTER": 272.3708, "MEAN_ANOMALY": 87.6335, "EPHEMERIS_TYPE": 0, "CLASSIFICATION_TYPE": "U", "NORAD_CAT_ID": 66917, "ELEMENT_SET_NO": 999, "REV_AT_EPOCH": 37, "BSTAR": -5.40171e-06, "MEAN_MOTION_DOT": -1.61e-06, "MEAN_MOTION_DDOT": 0}, "tle": {"line1": "1 66917U 25285C   25342.93311806 -.00000161  00000+0 -54017-5 0  9999", "line2": "2 66917  50.0009 132.8060 0007529 272.3708  87.6335 14.05578265   372"}}, "geometry": {"type": "Point", "coordinates": [-60.886282550691746, 14.028324876470888]}}, {"type": "Feature", "properties": {"norad_id": 66918, "name": "HULIANWANG DIGUI 14D", "group": "last-30-days", "lat": 13.057978651089638, "lon": -60.00510390372658, "alt_km": 874.0879368848973, "timestamp": "2025-12-09T07:41:31.974157+00:00", "meta": {"OBJECT_NAME": "HULIANWANG DIGUI 14D", "OBJECT_ID": "2025-285D", "EPOCH": "2025-12-08T22:23:22.657632", "MEAN_MOTION": 14.05702846, "ECCENTRICITY": 0.00064374, "INCLINATION": 50.0041, "RA_OF_ASC_NODE": 132.8068, "ARG_OF_PERICENTER": 267.5625, "MEAN_ANOMALY": 92.4544, "EPHEMERIS_TYPE": 0, "CLASSIFICATION_TYPE": "U", "NORAD_CAT_ID": 66918, "ELEMENT_SET_NO": 999, "REV_AT_EPOCH": 37, "BSTAR": 1.4530482e-05, "MEAN_MOTION_DOT": -1.28e-06, "MEAN_MOTION_DDOT": 0}, "tle": {"line1": "1 66918U 25285D   25342.93290113 -.00000128  00000+0  14530-4 0  9994", "line2": "2 66918  50.0041 132.8068 0006437 267.5625  92.4544 14.05702846   378"}}, "geometry": {"type": "Point", "coordinates": [-60.00510390372658, 13.057978651089638]}}, {"type": "Feature", "properties": {"norad_id": 66919, "name": "HULIANWANG DIGUI 14E", "group": "last-30-days", "lat": 12.907920795348113, "lon": -59.86727065631925, "alt_km": 875.3770838213823, "timestamp": "2025-12-09T07:41:31.974167+00:00", "meta": {"OBJECT_NAME": "HULIANWANG DIGUI 14E", "OBJECT_ID": "2025-285E", "EPOCH": "2025-12-08T22:23:19.095360", "MEAN_MOTION": 14.05713914, "ECCENTRICITY": 0.00078408, "INCLINATION": 50.0055, "RA_OF_ASC_NODE": 132.809, "ARG_OF_PERICENTER": 278.8705, "MEAN_ANOMALY": 81.1313, "EPHEMERIS_TYPE": 0, "CLASSIFICATION_TYPE": "U", "NORAD_CAT_ID": 66919, "ELEMENT_SET_NO": 999, "REV_AT_EPOCH": 37, "BSTAR": -9.388936e-06, "MEAN_MOTION_DOT": -1.68e-06, "MEAN_MOTION_DDOT": 0}, "tle": {"line1": "1 66919U 25285E   25342.93285990 -.00000168  00000+0 -93889-5 0  9992", "line2": "2 66919  50.0055 132.8090 0007840 278.8705  81.1313 14.05713914   379"}}, "geometry": {"type": "Point", "coordinates": [-59.86727065631925, 12.907920795348113]}}, {"type": "Feature", "properties": {"norad_id": 66920, "name": "HULIANWANG DIGUI 14F", "group": "last-30-days", "lat": 11.858213701734453, "lon": -58.92564723329121, "alt_km": 874.1035816830799, "timestamp": "2025-12-09T07:41:31.974177+00:00", "meta": {"OBJECT_NAME": "HULIANWANG DIGUI 14F", "OBJECT_ID": "2025-285F", "EPOCH": "2025-12-08T22:22:59.211264", "MEAN_MOTION": 14.05849445, "ECCENTRICITY": 0.0005868, "INCLINATION": 50.0088, "RA_OF_ASC_NODE": 132.8108, "ARG_OF_PERICENTER": 275.6401, "MEAN_ANOMALY": 84.3836, "EPHEMERIS_TYPE": 0, "CLASSIFICATION_TYPE": "U", "NORAD_CAT_ID": 66920, "ELEMENT_SET_NO": 999, "REV_AT_EPOCH": 37, "BSTAR": 0.00011320836, "MEAN_MOTION_DOT": 3.4e-07, "MEAN_MOTION_DDOT": 0}, "tle": {"line1": "1 66920U 25285F   25342.93262976  .00000034  00000+0  11321-3 0  9992", "line2": "2 66920  50.0088 132.8108 0005868 275.6401  84.3836 14.05849445   377"}}, "geometry": {"type": "Point", "coordinates": [-58.92564723329121, 11.858213701734453]}}, {"type": "Feature", "properties": {"norad_id": 66921, "name": "HULIANWANG DIGUI 14G", "group": "last-30-days", "lat": 11.588751492761162, "lon": -58.68459996640343, "alt_km": 874.8323237465629, "timestamp": "2025-12-09T07:41:31.974187+00:00", "meta": {"OBJECT_NAME": "HULIANWANG DIGUI 14G", "OBJECT_ID": "2025-285G", "EPOCH": "2025-12-08T22:22:53.571072", "MEAN_MOTION": 14.05882278, "ECCENTRICITY": 0.00069576, "INCLINATION": 50.0104, "RA_OF_ASC_NODE": 132.812, "ARG_OF_PERICENTER": 282.2806, "MEAN_ANOMALY": 77.732, "EPHEMERIS_TYPE": 0, "CLASSIFICATION_TYPE": "U", "NORAD_CAT_ID": 66921, "ELEMENT_SET_NO": 999, "REV_AT_EPOCH": 37, "BSTAR": 1.4028174e-05, "MEAN_MOTION_DOT": -1.29e-06, "MEAN_MOTION_DDOT": 0}, "tle": {"line1": "1 66921U 25285G   25342.93256448 -.00000129  00000+0  14028-4 0  9994", "line2": "2 66921  50.0104 132.8120 0006957 282.2806  77.7320 14.05882278   379"}}, "geometry": {"type": "Point", "coordinates": [-58.68459996640343, 11.588751492761162]}}, {"type": "Feature", "properties": {"norad_id": 66922, "name": "HULIANWANG DIGUI 14H", "group": "last-30-days", "lat": 10.677493960281057, "lon": -57.88536347638495, "alt_km": 874.9331341787574, "timestamp": "2025-12-09T07:41:31.974199+00:00", "meta": {"OBJECT_NAME": "HULIANWANG DIGUI 14H", "OBJECT_ID": "2025-285H", "EPOCH": "2025-12-08T22:22:35.887584", "MEAN_MOTION": 14.05997578, "ECCENTRICITY": 0.00069127, "INCLINATION": 50.0077, "RA_OF_ASC_NODE": 132.8078, "ARG_OF_PERICENTER": 288.5504, "MEAN_ANOMALY": 71.465, "EPHEMERIS_TYPE": 0, "CLASSIFICATION_TYPE": "U", "NORAD_CAT_ID": 66922, "ELEMENT_SET_NO": 999, "REV_AT_EPOCH": 37, "BSTAR": -8.90457e-06, "MEAN_MOTION_DOT": -1.67e-06, "MEAN_MOTION_DDOT": 0}, "tle": {"line1": "1 66922U 25285H   25342.93235981 -.00000167  00000+0 -89046-5 0  9990", "line2": "2 66922  50.0077 132.8078 0006912 288.5504  71.4650 14.05997578   373"}}, "geometry": {"type": "Point", "coordinates": [-57.88536347638495, 10.677493960281057]}}, {"type": "Feature", "properties": {"norad_id": 66923, "name": "HULIANWANG DIGUI 14J", "group": "last-30-days", "lat": 8.470637152125954, "lon": -55.96651616714188, "alt_km": 872.4342967948423, "timestamp": "2025-12-09T07:41:31.974211+00:00", "meta": {"OBJECT_NAME": "HULIANWANG DIGUI 14J", "OBJECT_ID": "2025-285J", "EPOCH": "2025-12-07T22:29:36.786048", "MEAN_MOTION": 14.06515715, "ECCENTRICITY": 0.00053876, "INCLINATION": 50.0075, "RA_OF_ASC_NODE": 136.8754, "ARG_OF_PERICENTER": 280.8946, "MEAN_ANOMALY": 79.1354, "EPHEMERIS_TYPE": 0, "CLASSIFICATION_TYPE": "U", "NORAD_CAT_ID": 66923, "ELEMENT_SET_NO": 999, "REV_AT_EPOCH": 23, "BSTAR": -4.7305e-07, "MEAN_MOTION_DOT": -1.53e-06, "MEAN_MOTION_DDOT": 0}, "tle": {"line1": "1 66923U 25285J   25341.93723132 -.00000153  00000+0 -47305-6 0  9998", "line2": "2 66923  50.0075 136.8754 0005387 280.8946  79.1354 14.06515715   238"}}, "geometry": {"type": "Point", "coordinates": [-55.96651616714188, 8.470637152125954]}}, {"type": "Feature", "properties": {"norad_id": 66924, "name": "CZ-8A R/B", "group": "last-30-days", "lat": 43.81938969233259, "lon": -175.6274830550426, "alt_km": 709.5749489657182, "timestamp": "2025-12-09T07:41:31.974233+00:00", "meta": {"OBJECT_NAME": "CZ-8A R/B", "OBJECT_ID": "2025-285K", "EPOCH": "2025-12-08T19:39:29.828736", "MEAN_MOTION": 14.3049934, "ECCENTRICITY": 0.01193374, "INCLINATION": 50.0061, "RA_OF_ASC_NODE": 132.8436, "ARG_OF_PERICENTER": 92.9076, "MEAN_ANOMALY": 268.5504, "EPHEMERIS_TYPE": 0, "CLASSIFICATION_TYPE": "U", "NORAD_CAT_ID": 66924, "ELEMENT_SET_NO": 999, "REV_AT_EPOCH": 36, "BSTAR": 4.1548951e-05, "MEAN_MOTION_DOT": -5e-07, "MEAN_MOTION_DDOT": 0}, "tle": {"line1": "1 66924U 25285K   25342.81909524 -.00000050  00000+0  41549-4 0  9995", "line2": "2 66924  50.0061 132.8436 0119337  92.9076 268.5504 14.30499340   361"}}, "geometry": {"type": "Point", "coordinates": [-175.6274830550426, 43.81938969233259]}}]}